{
"type": "FeatureCollection",
"name": "gekozen_wijken",
"crs": { "type": "name", "properties": { "name": "urn:ogc:def:crs:EPSG::28992" } },
"features": [
{ "type": "Feature", "properties": { "buurtcode": "BU0363KD05", "buurtnaam": "Museumplein", "wijkcode": "WK0363KD", "gemeentecode": "GM0363", "gemeentenaam": "Amsterdam", "indelingswijzigingWijkenEnBuurten": 1, "water": "NEE", "meestVoorkomendePostcode": "1071", "dekkingspercentage": 1, "omgevingsadressendichtheid": 8628, "stedelijkheidAdressenPerKm2": 1, "bevolkingsdichtheidInwonersPerKm2": -99997, "aantalInwoners": 10, "mannen": 5, "vrouwen": 5, "percentagePersonen0Tot15Jaar": -99997, "percentagePersonen15Tot25Jaar": -99997, "percentagePersonen25Tot45Jaar": -99997, "percentagePersonen45Tot65Jaar": -99997, "percentagePersonen65JaarEnOuder": -99997, "percentageOngehuwd": -99997, "percentageGehuwd": -99997, "percentageGescheid": -99997, "percentageVerweduwd": -99997, "geboorteTotaal": 0, "geboortesPer1000Inwoners": 0, "sterfteTotaal": 0, "sterfteRelatief": 0, "aantalHuishoudens": 5, "percentageEenpersoonshuishoudens": -99997, "percentageHuishoudensZonderKinderen": -99997, "percentageHuishoudensMetKinderen": -99997, "gemiddeldeHuishoudsgrootte": 1.6, "percentageMetHerkomstlandNederland": -99997, "percentageMetHerkomstlandUitEuropaExclNl": -99997, "percentageMetHerkomstlandBuitenEuropa": -99997, "percentageGebInNlMetHerkomstlandNederland": -99997, "percGebInNlMetHerkomstlandInEuropaExNl": -99997, "percGebInNlMetHerkomstlandBuitenEuropa": -99997, "percGebBuitenNlMetHerkomstlndInEuropaExNl": -99997, "percGebBuitenNlMetHerkomstlndBuitenEuropa": -99997, "aantalBedrijvenLandbouwBosbouwVisserij": -99997, "aantalBedrijvenNijverheidEnergie": -99997, "aantalBedrijvenHandelEnHoreca": -99997, "aantalBedrijvenVervoerInformatieCommunicatie": -99997, "aantalBedrijvenFinancieelOnroerendGoed": -99997, "aantalBedrijvenZakelijkeDienstverlening": -99997, "aantalBedrijvenOverheidOnderwijsEnZorg": -99997, "aantalBedrijvenCultuurRecreatieOverige": -99997, "aantalBedrijfsvestigingen": 15, "woningvoorraad": 5, "gemiddeldeWoningwaarde": -99997, "percentageEengezinswoning": -99997, "percentageMeergezinswoning": -99997, "percentageBewoond": -99997, "percentageKoopwoningen": -99997, "percentageHuurwoningen": -99997, "percHuurwoningenInBezitWoningcorporaties": -99997, "percHuurwoningenInBezitOverigeVerhuurders": -99997, "percentageWoningenMetEigendomOnbekend": -99997, "percentageBouwjaarklasseTot2000": -99997, "percentageBouwjaarklasseVanaf2000": -99997, "percentageLeegstandWoningen": -99997, "gemiddeldGasverbruikTotaal": -99997, "gemiddeldGasverbruikAppartement": -99997, "gemiddeldGasverbruikTussenwoning": -99997, "gemiddeldGasverbruikHoekwoning": -99997, "gemiddeldGasverbruik2Onder1KapWoning": -99997, "gemiddeldGasverbruikVrijstaandeWoning": -99997, "gemiddeldGasverbruikHuurwoning": -99997, "gemiddeldGasverbruikkoopwoning": -99997, "gemiddeldElektriciteitsverbruikTotaal": -99997, "gemiddeldElektriciteitsverbruikAppartement": -99997, "gemiddeldElektriciteitsverbruikTussenwoning": -99997, "gemiddeldElektriciteitsverbruikHoekwoning": -99997, "gemElektriciteitsverbruik2Onder1KapWoning": -99997, "gemElektriciteitsverbruikVrijstaandeWoning": -99997, "gemiddeldElektriciteitsverbruikHuurwoning": -99997, "gemiddeldElektriciteitsverbruikkoopwoning": -99997, "percentageWoningenMetStadsverwarming": -99997, "opleidingsniveauLaag": -99997, "opleidingsniveauMiddelbaar": -99997, "opleidingsniveauHoog": -99997, "nettoArbeidsparticipatie": -99997, "percentageWerknemers": -99997, "percentageZelfstandigen": -99997, "aantalInkomensontvangers": -99997, "gemiddeldInkomenPerInkomensontvanger": -99997, "gemiddeldInkomenPerInwoner": -99997, "percentagePersonenMetHoogInkomen": -99997, "percentagePersonenMetLaagInkomen": -99997, "percentageHuishoudensMetHoogInkomen": -99997, "percentageHuishoudensMetLaagInkomen": -99997, "percentageHuishoudensMetLaagsteInkomen": -99997, "percentageHuishoudensOnderOfRondSociaalMinimum": -99997, "aantalPersonenMetEenAoUitkeringTotaal": -99997, "aantalPersonenMetEenWwUitkeringTotaal": -99997, "aantalPersonenMetEenAlgBijstandsuitkeringTot": -99997, "aantalPersonenMetEenAowUitkeringTotaal": -99997, "gemiddeldGestandaardiseerdInkomenVanHuishoudens": -99997.0, "huishoudensTot110PercentVanSociaalMinimum": -99997.0, "huishoudensTot120PercentVanSociaalMinimum": -99997.0, "mediaanVermogenVanParticuliereHuish": -99997.0, "aantalJongerenMetJeugdzorgInNatura": -99997, "percentageJongerenMetJeugdzorgInNatura": -99997.0, "aantalWmoClienten": -99997, "aantalWmoClientenPer1000Inwoners": -99997, "personenautosTotaal": 5, "personenautosPerHuishouden": -99997.0, "personenautosPerKm2": -99997, "motortweewielersTotaal": 0, "aantalPersonenautosMetBrandstofBenzine": 5, "aantalPersonenautosMetOverigeBrandstof": 0, "oppervlakteTotaalInHa": 13, "oppervlakteLandInHa": 13, "oppervlakteWaterInHa": 0, "huisartsenpraktijkGemiddeldeAfstandInKm": -99997.0, "huisartsenpraktijkGemiddeldAantalBinnen1Km": -99997.0, "huisartsenpraktijkGemiddeldAantalBinnen3Km": -99997.0, "huisartsenpraktijkGemiddeldAantalBinnen5Km": -99997.0, "huisartsenpostGemiddeldeAfstandInKm": -99997.0, "apotheekGemiddeldeAfstandInKm": -99997.0, "ziekenhuisInclBuitenpolikliniekGemAfstInKm": -99997.0, "ziekenhuisInclBuitenpoliGemAantalBinnen5Km": -99997.0, "ziekenhuisInclBuitenpoliGemAantalBinnen10Km": -99997.0, "ziekenhuisInclBuitenpoliGemAantalBinnen20Km": -99997.0, "ziekenhuisExclBuitenpolikliniekGemAfstInKm": -99997.0, "ziekenhuisExclBuitenpoliGemAantalBinnen5Km": -99997.0, "ziekenhuisExclBuitenpoliGemAantalBinnen10Km": -99997.0, "ziekenhuisExclBuitenpoliGemAantalBinnen20Km": -99997.0, "groteSupermarktGemiddeldeAfstandInKm": -99997.0, "groteSupermarktGemiddeldAantalBinnen1Km": -99997.0, "groteSupermarktGemiddeldAantalBinnen3Km": -99997.0, "groteSupermarktGemiddeldAantalBinnen5Km": -99997.0, "winkelsOvDagelijkseLevensmGemAfstInKm": -99997.0, "winkelsOvDagelLevensmGemAantalBinnen1Km": -99997.0, "winkelsOvDagelLevensmGemAantalBinnen3Km": -99997.0, "winkelsOvDagelLevensmGemAantalBinnen5Km": -99997.0, "warenhuisGemiddeldeAfstandInKm": -99997.0, "warenhuisGemiddeldAantalBinnen5Km": -99997.0, "warenhuisGemiddeldAantalBinnen10Km": -99997.0, "warenhuisGemiddeldAantalBinnen20Km": -99997.0, "cafeGemiddeldeAfstandInKm": -99997.0, "cafeGemiddeldAantalBinnen1Km": -99997.0, "cafeGemiddeldAantalBinnen3Km": -99997.0, "cafeGemiddeldAantalBinnen5Km": -99997.0, "cafetariaGemiddeldeAfstandInKm": -99997.0, "cafetariaGemiddeldAantalBinnen1Km": -99997.0, "cafetariaGemiddeldAantalBinnen3Km": -99997.0, "cafetariaGemiddeldAantalBinnen5Km": -99997.0, "restaurantGemiddeldeAfstandInKm": -99997.0, "restaurantGemiddeldAantalBinnen1Km": -99997.0, "restaurantGemiddeldAantalBinnen3Km": -99997.0, "restaurantGemiddeldAantalBinnen5Km": -99997.0, "hotelGemiddeldeAfstandInKm": -99997.0, "hotelGemiddeldAantalBinnen5Km": -99997.0, "hotelGemiddeldAantalBinnen10Km": -99997.0, "hotelGemiddeldAantalBinnen20Km": -99997.0, "kinderdagverblijfGemiddeldeAfstandInKm": -99997.0, "kinderdagverblijfGemiddeldAantalBinnen1Km": -99997.0, "kinderdagverblijfGemiddeldAantalBinnen3Km": -99997.0, "kinderdagverblijfGemiddeldAantalBinnen5Km": -99997.0, "buitenschoolseOpvangGemAfstandInKm": -99997.0, "buitenschoolseOpvangGemiddeldAantalBinnen1Km": -99997.0, "buitenschoolseOpvangGemiddeldAantalBinnen3Km": -99997.0, "buitenschoolseOpvangGemiddeldAantalBinnen5Km": -99997.0, "basisonderwijsGemiddeldeAfstandInKm": -99997.0, "basisonderwijsGemiddeldAantalBinnen1Km": -99997.0, "basisonderwijsGemiddeldAantalBinnen3Km": -99997.0, "basisonderwijsGemiddeldAantalBinnen5Km": -99997.0, "voortgezetOnderwijsGemAfstandInKm": -99997.0, "voortgezetOnderwijsGemiddeldAantalBinnen3Km": -99997.0, "voortgezetOnderwijsGemiddeldAantalBinnen5Km": -99997.0, "voortgezetOnderwijsGemiddeldAantalBinnen10Km": -99997.0, "vmboGemiddeldeAfstandInKm": -99997.0, "vmboGemiddeldAantalBinnen3Km": -99997.0, "vmboGemiddeldAantalBinnen5Km": -99997.0, "vmboGemiddeldAantalBinnen10Km": -99997.0, "havoVwoGemiddeldeAfstandInKm": -99997.0, "havoVwoGemiddeldAantalBinnen3Km": -99997.0, "havoVwoGemiddeldAantalBinnen5Km": -99997.0, "havoVwoGemiddeldAantalBinnen10Km": -99997.0, "brandweerkazerneGemiddeldeAfstandInKm": -99997.0, "opritHoofdverkeerswegGemiddeldeAfstandInKm": -99997.0, "treinstationGemiddeldeAfstandInKm": -99997.0, "overstapstationGemiddeldeAfstandInKm": -99997.0, "zwembadGemiddeldeAfstandInKm": -99997.0, "kunstijsbaanGemiddeldeAfstandInKm": -99997.0, "bibliotheekGemiddeldeAfstandInKm": -99997.0, "poppodiumGemiddeldeAfstandInKm": -99997.0, "bioscoopGemiddeldeAfstandInKm": -99997.0, "bioscoopGemiddeldAantalBinnen5Km": -99997.0, "bioscoopGemiddeldAantalBinnen10Km": -99997.0, "bioscoopGemiddeldAantalBinnen20Km": -99997.0, "saunaGemiddeldeAfstandInKm": -99997.0, "zonnebankGemiddeldeAfstandInKm": -99997.0, "attractieparkGemiddeldeAfstandInKm": -99997.0, "attractieparkGemiddeldAantalBinnen10Km": -99997.0, "attractieparkGemiddeldAantalBinnen20Km": -99997.0, "attractieparkGemiddeldAantalBinnen50Km": -99997.0, "theaterGemiddeldeAfstandInKm": -99997.0, "theaterGemiddeldAantalBinnen5Km": -99997.0, "theaterGemiddeldAantalBinnen10Km": -99997.0, "theaterGemiddeldAantalBinnen20Km": -99997.0, "gemiddeldeAfstandTotMuseum": -99997.0, "gemiddeldAantalMuseaBinnen5Km": -99997.0, "gemiddeldAantalMuseaBinnen10Km": -99997.0, "gemiddeldAantalMuseaBinnen20Km": -99997.0, "afstandTotOpenbaarGroenTotaal": -99997.0, "afstandTotParkOfPlantsoen": -99997.0, "afstandTotDagrcreatiefTerrein": -99997.0, "afstandTotBos": -99997.0, "afstandTotOpenNatuurTerreinTotaal": -99997.0, "afstandTotOpenDroogNatuurTerrein": -99997.0, "afstandTotOpenNatNatuurlijkTerrein": -99997.0, "afstandTotSemiopenbaarGroenTotaal": -99997.0, "afstandTotSportterrein": -99997.0, "afstandTotVolkstuin": -99997.0, "afstandTotVerblijfsrecreatiefTerrein": -99997.0, "afstandTotRecreatiefBinnenwater": -99997.0, "afstandTotBegraafplaats": -99997.0, "jrstatcode": "2024BU0363KD05", "jaar": 2024, "aantalNieuwbouwWoningen": 0.0, "aantalNietWoningvoorraad": 17, "aantalNieuwbouwNietWoningen": 0, "percEengezinswoningTussenwoning": -99997.0, "percEengezinswoningHoekwoning": -99997.0, "percEengezinswoning2Onder1Kap": -99997.0, "percEengezinswoningVrijstaand": -99997.0, "percBouwjaarMeerDan10JaarGeleden": -99997.0, "percBouwjaarAfgelopen10Jaar": -99997.0, "percentageOnbewoond": -99997, "gemiddeldAardgasverbruik": 2250, "percentageAardgaswoningen": -99997.0, "percentageAardgasvrijeWoningen": -99997.0, "gemiddeldeElektriciteitslevering": 2920.0, "gemiddeldeElektriciteitsteruglevering": 0.0, "percentageWoningenMetZonnestroom": -99997.0, "aantalLeerlingenPrimairOnderwijs": 0, "aantalLeerlingenVoortgezetOnderwijs": 0, "aantalStudentenMbo": 0, "aantalStudentenHbo": 0, "aantalStudentenWo": 0, "fuuid": "buurten.023fe66e-eb45-4234-b669-0a83b6a78755" }, "geometry": { "type": "Polygon", "coordinates": [ [ [ 120878.919, 485994.050999999977648 ], [ 120952.665, 485932.664999999979045 ], [ 120923.471, 485898.604999999981374 ], [ 120911.705, 485862.726000000024214 ], [ 120906.182, 485766.041000000026543 ], [ 120775.27, 485794.74800000002142 ], [ 120745.846, 485668.202999999979511 ], [ 120712.762, 485677.993000000016764 ], [ 120686.768, 485688.805999999982305 ], [ 120627.214, 485566.878000000026077 ], [ 120539.747, 485475.207999999984168 ], [ 120487.705, 485490.696 ], [ 120480.786, 485491.797000000020489 ], [ 120474.949, 485491.581 ], [ 120469.24, 485490.340000000025611 ], [ 120445.611, 485480.580000000016298 ], [ 120434.45, 485511.109 ], [ 120350.164, 485705.436999999976251 ], [ 120677.532, 485845.547000000020489 ], [ 120680.656, 485847.50199999997858 ], [ 120685.963, 485852.593999999982771 ], [ 120689.693, 485858.931999999971595 ], [ 120691.568, 485866.043 ], [ 120691.448, 485873.397 ], [ 120672.194, 485924.856000000028871 ], [ 120669.124, 485941.009000000020023 ], [ 120740.821, 485971.427000000025146 ], [ 120755.367, 485979.723 ], [ 120766.461, 485988.967 ], [ 120816.983, 486045.314000000013039 ], [ 120878.919, 485994.050999999977648 ] ] ] } },
{ "type": "Feature", "properties": { "buurtcode": "BU0363KE01", "buurtnaam": "Frans Halsbuurt", "wijkcode": "WK0363KE", "gemeentecode": "GM0363", "gemeentenaam": "Amsterdam", "indelingswijzigingWijkenEnBuurten": 1, "water": "NEE", "meestVoorkomendePostcode": "1072", "dekkingspercentage": 1, "omgevingsadressendichtheid": 9988, "stedelijkheidAdressenPerKm2": 1, "bevolkingsdichtheidInwonersPerKm2": 23931, "aantalInwoners": 2640, "mannen": 1310, "vrouwen": 1330, "percentagePersonen0Tot15Jaar": 7, "percentagePersonen15Tot25Jaar": 13, "percentagePersonen25Tot45Jaar": 48, "percentagePersonen45Tot65Jaar": 21, "percentagePersonen65JaarEnOuder": 10, "percentageOngehuwd": 75, "percentageGehuwd": 17, "percentageGescheid": 6, "percentageVerweduwd": 1, "geboorteTotaal": 25, "geboortesPer1000Inwoners": 9, "sterfteTotaal": 10, "sterfteRelatief": 3, "aantalHuishoudens": 1780, "percentageEenpersoonshuishoudens": 65, "percentageHuishoudensZonderKinderen": 23, "percentageHuishoudensMetKinderen": 12, "gemiddeldeHuishoudsgrootte": 1.5, "percentageMetHerkomstlandNederland": 46, "percentageMetHerkomstlandUitEuropaExclNl": 26, "percentageMetHerkomstlandBuitenEuropa": 29, "percentageGebInNlMetHerkomstlandNederland": 46, "percGebInNlMetHerkomstlandInEuropaExNl": 5, "percGebInNlMetHerkomstlandBuitenEuropa": 9, "percGebBuitenNlMetHerkomstlndInEuropaExNl": 21, "percGebBuitenNlMetHerkomstlndBuitenEuropa": 19, "aantalBedrijvenLandbouwBosbouwVisserij": 0, "aantalBedrijvenNijverheidEnergie": 25, "aantalBedrijvenHandelEnHoreca": 125, "aantalBedrijvenVervoerInformatieCommunicatie": 85, "aantalBedrijvenFinancieelOnroerendGoed": 40, "aantalBedrijvenZakelijkeDienstverlening": 245, "aantalBedrijvenOverheidOnderwijsEnZorg": 80, "aantalBedrijvenCultuurRecreatieOverige": 125, "aantalBedrijfsvestigingen": 720, "woningvoorraad": 1735, "gemiddeldeWoningwaarde": 547, "percentageEengezinswoning": 1, "percentageMeergezinswoning": 99, "percentageBewoond": -99997, "percentageKoopwoningen": 28, "percentageHuurwoningen": 72, "percHuurwoningenInBezitWoningcorporaties": 23, "percHuurwoningenInBezitOverigeVerhuurders": 48, "percentageWoningenMetEigendomOnbekend": -99997, "percentageBouwjaarklasseTot2000": -99997, "percentageBouwjaarklasseVanaf2000": -99997, "percentageLeegstandWoningen": -99997, "gemiddeldGasverbruikTotaal": -99997, "gemiddeldGasverbruikAppartement": -99997, "gemiddeldGasverbruikTussenwoning": -99997, "gemiddeldGasverbruikHoekwoning": -99997, "gemiddeldGasverbruik2Onder1KapWoning": -99997, "gemiddeldGasverbruikVrijstaandeWoning": -99997, "gemiddeldGasverbruikHuurwoning": -99997, "gemiddeldGasverbruikkoopwoning": -99997, "gemiddeldElektriciteitsverbruikTotaal": -99997, "gemiddeldElektriciteitsverbruikAppartement": -99997, "gemiddeldElektriciteitsverbruikTussenwoning": -99997, "gemiddeldElektriciteitsverbruikHoekwoning": -99997, "gemElektriciteitsverbruik2Onder1KapWoning": -99997, "gemElektriciteitsverbruikVrijstaandeWoning": -99997, "gemiddeldElektriciteitsverbruikHuurwoning": -99997, "gemiddeldElektriciteitsverbruikkoopwoning": -99997, "percentageWoningenMetStadsverwarming": -99997, "opleidingsniveauLaag": -99997, "opleidingsniveauMiddelbaar": -99997, "opleidingsniveauHoog": -99997, "nettoArbeidsparticipatie": -99997, "percentageWerknemers": -99997, "percentageZelfstandigen": -99997, "aantalInkomensontvangers": -99997, "gemiddeldInkomenPerInkomensontvanger": -99997, "gemiddeldInkomenPerInwoner": -99997, "percentagePersonenMetHoogInkomen": -99997, "percentagePersonenMetLaagInkomen": -99997, "percentageHuishoudensMetHoogInkomen": -99997, "percentageHuishoudensMetLaagInkomen": -99997, "percentageHuishoudensMetLaagsteInkomen": -99997, "percentageHuishoudensOnderOfRondSociaalMinimum": -99997, "aantalPersonenMetEenAoUitkeringTotaal": 70, "aantalPersonenMetEenWwUitkeringTotaal": 30, "aantalPersonenMetEenAlgBijstandsuitkeringTot": 70, "aantalPersonenMetEenAowUitkeringTotaal": 230, "gemiddeldGestandaardiseerdInkomenVanHuishoudens": -99997.0, "huishoudensTot110PercentVanSociaalMinimum": -99997.0, "huishoudensTot120PercentVanSociaalMinimum": -99997.0, "mediaanVermogenVanParticuliereHuish": -99997.0, "aantalJongerenMetJeugdzorgInNatura": -99997, "percentageJongerenMetJeugdzorgInNatura": -99997.0, "aantalWmoClienten": -99997, "aantalWmoClientenPer1000Inwoners": -99997, "personenautosTotaal": 480, "personenautosPerHuishouden": 0.3, "personenautosPerKm2": 4330, "motortweewielersTotaal": 65, "aantalPersonenautosMetBrandstofBenzine": 380, "aantalPersonenautosMetOverigeBrandstof": 100, "oppervlakteTotaalInHa": 12, "oppervlakteLandInHa": 11, "oppervlakteWaterInHa": 1, "huisartsenpraktijkGemiddeldeAfstandInKm": 0.5, "huisartsenpraktijkGemiddeldAantalBinnen1Km": 3.0, "huisartsenpraktijkGemiddeldAantalBinnen3Km": 53.6, "huisartsenpraktijkGemiddeldAantalBinnen5Km": 126.5, "huisartsenpostGemiddeldeAfstandInKm": 2.6, "apotheekGemiddeldeAfstandInKm": 1.1, "ziekenhuisInclBuitenpolikliniekGemAfstInKm": 2.5, "ziekenhuisInclBuitenpoliGemAantalBinnen5Km": 3.2, "ziekenhuisInclBuitenpoliGemAantalBinnen10Km": 7.1, "ziekenhuisInclBuitenpoliGemAantalBinnen20Km": 12.9, "ziekenhuisExclBuitenpolikliniekGemAfstInKm": 2.6, "ziekenhuisExclBuitenpoliGemAantalBinnen5Km": 2.2, "ziekenhuisExclBuitenpoliGemAantalBinnen10Km": 6.1, "ziekenhuisExclBuitenpoliGemAantalBinnen20Km": 9.9, "groteSupermarktGemiddeldeAfstandInKm": 0.4, "groteSupermarktGemiddeldAantalBinnen1Km": 7.1, "groteSupermarktGemiddeldAantalBinnen3Km": 78.2, "groteSupermarktGemiddeldAantalBinnen5Km": 159.3, "winkelsOvDagelijkseLevensmGemAfstInKm": 0.2, "winkelsOvDagelLevensmGemAantalBinnen1Km": 49.6, "winkelsOvDagelLevensmGemAantalBinnen3Km": 477.9, "winkelsOvDagelLevensmGemAantalBinnen5Km": 982.7, "warenhuisGemiddeldeAfstandInKm": 1.5, "warenhuisGemiddeldAantalBinnen5Km": 13.6, "warenhuisGemiddeldAantalBinnen10Km": 24.0, "warenhuisGemiddeldAantalBinnen20Km": 34.8, "cafeGemiddeldeAfstandInKm": 0.3, "cafeGemiddeldAantalBinnen1Km": 26.6, "cafeGemiddeldAantalBinnen3Km": 320.2, "cafeGemiddeldAantalBinnen5Km": 638.6, "cafetariaGemiddeldeAfstandInKm": 0.1, "cafetariaGemiddeldAantalBinnen1Km": 47.2, "cafetariaGemiddeldAantalBinnen3Km": 403.6, "cafetariaGemiddeldAantalBinnen5Km": 787.8, "restaurantGemiddeldeAfstandInKm": 0.1, "restaurantGemiddeldAantalBinnen1Km": 112.7, "restaurantGemiddeldAantalBinnen3Km": 1101.0, "restaurantGemiddeldAantalBinnen5Km": 1989.0, "hotelGemiddeldeAfstandInKm": 0.4, "hotelGemiddeldAantalBinnen5Km": 377.9, "hotelGemiddeldAantalBinnen10Km": 444.1, "hotelGemiddeldAantalBinnen20Km": 511.5, "kinderdagverblijfGemiddeldeAfstandInKm": 0.7, "kinderdagverblijfGemiddeldAantalBinnen1Km": 4.0, "kinderdagverblijfGemiddeldAantalBinnen3Km": 121.5, "kinderdagverblijfGemiddeldAantalBinnen5Km": 314.8, "buitenschoolseOpvangGemAfstandInKm": 1.2, "buitenschoolseOpvangGemiddeldAantalBinnen1Km": 0.5, "buitenschoolseOpvangGemiddeldAantalBinnen3Km": 47.9, "buitenschoolseOpvangGemiddeldAantalBinnen5Km": 155.7, "basisonderwijsGemiddeldeAfstandInKm": 1.2, "basisonderwijsGemiddeldAantalBinnen1Km": 0.3, "basisonderwijsGemiddeldAantalBinnen3Km": 35.2, "basisonderwijsGemiddeldAantalBinnen5Km": 89.3, "voortgezetOnderwijsGemAfstandInKm": 0.6, "voortgezetOnderwijsGemiddeldAantalBinnen3Km": 24.3, "voortgezetOnderwijsGemiddeldAantalBinnen5Km": 44.0, "voortgezetOnderwijsGemiddeldAantalBinnen10Km": 80.5, "vmboGemiddeldeAfstandInKm": 0.6, "vmboGemiddeldAantalBinnen3Km": 12.6, "vmboGemiddeldAantalBinnen5Km": 29.4, "vmboGemiddeldAantalBinnen10Km": 58.5, "havoVwoGemiddeldeAfstandInKm": 0.6, "havoVwoGemiddeldAantalBinnen3Km": 21.2, "havoVwoGemiddeldAantalBinnen5Km": 33.9, "havoVwoGemiddeldAantalBinnen10Km": 55.4, "brandweerkazerneGemiddeldeAfstandInKm": 1.1, "opritHoofdverkeerswegGemiddeldeAfstandInKm": 2.8, "treinstationGemiddeldeAfstandInKm": 2.8, "overstapstationGemiddeldeAfstandInKm": 2.9, "zwembadGemiddeldeAfstandInKm": 0.8, "kunstijsbaanGemiddeldeAfstandInKm": 5.3, "bibliotheekGemiddeldeAfstandInKm": 1.1, "poppodiumGemiddeldeAfstandInKm": 1.5, "bioscoopGemiddeldeAfstandInKm": 1.2, "bioscoopGemiddeldAantalBinnen5Km": 11.0, "bioscoopGemiddeldAantalBinnen10Km": 14.0, "bioscoopGemiddeldAantalBinnen20Km": 17.8, "saunaGemiddeldeAfstandInKm": 2.4, "zonnebankGemiddeldeAfstandInKm": 0.9, "attractieparkGemiddeldeAfstandInKm": 2.6, "attractieparkGemiddeldAantalBinnen10Km": 7.1, "attractieparkGemiddeldAantalBinnen20Km": 12.0, "attractieparkGemiddeldAantalBinnen50Km": 63.0, "theaterGemiddeldeAfstandInKm": 1.4, "theaterGemiddeldAantalBinnen5Km": 34.2, "theaterGemiddeldAantalBinnen10Km": 52.0, "theaterGemiddeldAantalBinnen20Km": 59.7, "gemiddeldeAfstandTotMuseum": 0.9, "gemiddeldAantalMuseaBinnen5Km": 42.2, "gemiddeldAantalMuseaBinnen10Km": 50.0, "gemiddeldAantalMuseaBinnen20Km": 62.7, "afstandTotOpenbaarGroenTotaal": -99997.0, "afstandTotParkOfPlantsoen": -99997.0, "afstandTotDagrcreatiefTerrein": -99997.0, "afstandTotBos": -99997.0, "afstandTotOpenNatuurTerreinTotaal": -99997.0, "afstandTotOpenDroogNatuurTerrein": -99997.0, "afstandTotOpenNatNatuurlijkTerrein": -99997.0, "afstandTotSemiopenbaarGroenTotaal": -99997.0, "afstandTotSportterrein": -99997.0, "afstandTotVolkstuin": -99997.0, "afstandTotVerblijfsrecreatiefTerrein": -99997.0, "afstandTotRecreatiefBinnenwater": -99997.0, "afstandTotBegraafplaats": -99997.0, "jrstatcode": "2024BU0363KE01", "jaar": 2024, "aantalNieuwbouwWoningen": 0.0, "aantalNietWoningvoorraad": 140, "aantalNieuwbouwNietWoningen": 0, "percEengezinswoningTussenwoning": 1.0, "percEengezinswoningHoekwoning": 0.0, "percEengezinswoning2Onder1Kap": 0.0, "percEengezinswoningVrijstaand": 0.0, "percBouwjaarMeerDan10JaarGeleden": 98.0, "percBouwjaarAfgelopen10Jaar": 2.0, "percentageOnbewoond": 9, "gemiddeldAardgasverbruik": 630, "percentageAardgaswoningen": 99.0, "percentageAardgasvrijeWoningen": 0.0, "gemiddeldeElektriciteitslevering": 1690.0, "gemiddeldeElektriciteitsteruglevering": 30.0, "percentageWoningenMetZonnestroom": 3.0, "aantalLeerlingenPrimairOnderwijs": 70, "aantalLeerlingenVoortgezetOnderwijs": 70, "aantalStudentenMbo": 20, "aantalStudentenHbo": 60, "aantalStudentenWo": 160, "fuuid": "buurten.1920357a-c83d-42b5-8dd0-af53b9871205" }, "geometry": { "type": "Polygon", "coordinates": [ [ [ 120972.744, 485914.902 ], [ 120990.655, 485894.954000000027008 ], [ 121005.829, 485873.614 ], [ 121013.693, 485860.150000000023283 ], [ 121021.735, 485844.143999999971129 ], [ 121037.397, 485820.534999999974389 ], [ 121056.787, 485796.924999999988358 ], [ 121078.56, 485775.493000000016764 ], [ 121088.847, 485766.972 ], [ 121102.446, 485757.449000000022352 ], [ 121116.137, 485749.240999999979977 ], [ 121129.787, 485742.273999999975786 ], [ 121143.871, 485736.234 ], [ 121158.937, 485730.955000000016298 ], [ 121173.711, 485726.884000000020023 ], [ 121189.039, 485723.754000000015367 ], [ 121186.194, 485676.836000000010245 ], [ 121158.604, 485413.468 ], [ 121155.294, 485397.631 ], [ 121063.548, 485367.87699999997858 ], [ 120901.79, 485383.643999999971129 ], [ 120895.112, 485557.061999999976251 ], [ 120896.874, 485603.097 ], [ 120906.182, 485766.041000000026543 ], [ 120911.705, 485862.726000000024214 ], [ 120923.471, 485898.604999999981374 ], [ 120952.665, 485932.664999999979045 ], [ 120972.744, 485914.902 ] ] ] } },
{ "type": "Feature", "properties": { "buurtcode": "BU0363KE04", "buurtnaam": "Sarphatiparkbuurt", "wijkcode": "WK0363KE", "gemeentecode": "GM0363", "gemeentenaam": "Amsterdam", "indelingswijzigingWijkenEnBuurten": 1, "water": "NEE", "meestVoorkomendePostcode": "1073", "dekkingspercentage": 4, "omgevingsadressendichtheid": 11231, "stedelijkheidAdressenPerKm2": 1, "bevolkingsdichtheidInwonersPerKm2": 22830, "aantalInwoners": 5180, "mannen": 2580, "vrouwen": 2605, "percentagePersonen0Tot15Jaar": 6, "percentagePersonen15Tot25Jaar": 16, "percentagePersonen25Tot45Jaar": 49, "percentagePersonen45Tot65Jaar": 19, "percentagePersonen65JaarEnOuder": 10, "percentageOngehuwd": 78, "percentageGehuwd": 15, "percentageGescheid": 6, "percentageVerweduwd": 1, "geboorteTotaal": 25, "geboortesPer1000Inwoners": 5, "sterfteTotaal": 15, "sterfteRelatief": 3, "aantalHuishoudens": 3490, "percentageEenpersoonshuishoudens": 65, "percentageHuishoudensZonderKinderen": 25, "percentageHuishoudensMetKinderen": 10, "gemiddeldeHuishoudsgrootte": 1.5, "percentageMetHerkomstlandNederland": 46, "percentageMetHerkomstlandUitEuropaExclNl": 24, "percentageMetHerkomstlandBuitenEuropa": 30, "percentageGebInNlMetHerkomstlandNederland": 46, "percGebInNlMetHerkomstlandInEuropaExNl": 4, "percGebInNlMetHerkomstlandBuitenEuropa": 10, "percGebBuitenNlMetHerkomstlndInEuropaExNl": 20, "percGebBuitenNlMetHerkomstlndBuitenEuropa": 20, "aantalBedrijvenLandbouwBosbouwVisserij": 0, "aantalBedrijvenNijverheidEnergie": 70, "aantalBedrijvenHandelEnHoreca": 405, "aantalBedrijvenVervoerInformatieCommunicatie": 150, "aantalBedrijvenFinancieelOnroerendGoed": 55, "aantalBedrijvenZakelijkeDienstverlening": 450, "aantalBedrijvenOverheidOnderwijsEnZorg": 165, "aantalBedrijvenCultuurRecreatieOverige": 305, "aantalBedrijfsvestigingen": 1600, "woningvoorraad": 3357, "gemiddeldeWoningwaarde": 493, "percentageEengezinswoning": 0, "percentageMeergezinswoning": 100, "percentageBewoond": -99997, "percentageKoopwoningen": 25, "percentageHuurwoningen": 75, "percHuurwoningenInBezitWoningcorporaties": 20, "percHuurwoningenInBezitOverigeVerhuurders": 55, "percentageWoningenMetEigendomOnbekend": -99997, "percentageBouwjaarklasseTot2000": -99997, "percentageBouwjaarklasseVanaf2000": -99997, "percentageLeegstandWoningen": -99997, "gemiddeldGasverbruikTotaal": -99997, "gemiddeldGasverbruikAppartement": -99997, "gemiddeldGasverbruikTussenwoning": -99997, "gemiddeldGasverbruikHoekwoning": -99997, "gemiddeldGasverbruik2Onder1KapWoning": -99997, "gemiddeldGasverbruikVrijstaandeWoning": -99997, "gemiddeldGasverbruikHuurwoning": -99997, "gemiddeldGasverbruikkoopwoning": -99997, "gemiddeldElektriciteitsverbruikTotaal": -99997, "gemiddeldElektriciteitsverbruikAppartement": -99997, "gemiddeldElektriciteitsverbruikTussenwoning": -99997, "gemiddeldElektriciteitsverbruikHoekwoning": -99997, "gemElektriciteitsverbruik2Onder1KapWoning": -99997, "gemElektriciteitsverbruikVrijstaandeWoning": -99997, "gemiddeldElektriciteitsverbruikHuurwoning": -99997, "gemiddeldElektriciteitsverbruikkoopwoning": -99997, "percentageWoningenMetStadsverwarming": -99997, "opleidingsniveauLaag": -99997, "opleidingsniveauMiddelbaar": -99997, "opleidingsniveauHoog": -99997, "nettoArbeidsparticipatie": -99997, "percentageWerknemers": -99997, "percentageZelfstandigen": -99997, "aantalInkomensontvangers": -99997, "gemiddeldInkomenPerInkomensontvanger": -99997, "gemiddeldInkomenPerInwoner": -99997, "percentagePersonenMetHoogInkomen": -99997, "percentagePersonenMetLaagInkomen": -99997, "percentageHuishoudensMetHoogInkomen": -99997, "percentageHuishoudensMetLaagInkomen": -99997, "percentageHuishoudensMetLaagsteInkomen": -99997, "percentageHuishoudensOnderOfRondSociaalMinimum": -99997, "aantalPersonenMetEenAoUitkeringTotaal": 120, "aantalPersonenMetEenWwUitkeringTotaal": 70, "aantalPersonenMetEenAlgBijstandsuitkeringTot": 130, "aantalPersonenMetEenAowUitkeringTotaal": 450, "gemiddeldGestandaardiseerdInkomenVanHuishoudens": -99997.0, "huishoudensTot110PercentVanSociaalMinimum": -99997.0, "huishoudensTot120PercentVanSociaalMinimum": -99997.0, "mediaanVermogenVanParticuliereHuish": -99997.0, "aantalJongerenMetJeugdzorgInNatura": -99997, "percentageJongerenMetJeugdzorgInNatura": -99997.0, "aantalWmoClienten": -99997, "aantalWmoClientenPer1000Inwoners": -99997, "personenautosTotaal": 800, "personenautosPerHuishouden": 0.2, "personenautosPerKm2": 3522, "motortweewielersTotaal": 90, "aantalPersonenautosMetBrandstofBenzine": 645, "aantalPersonenautosMetOverigeBrandstof": 150, "oppervlakteTotaalInHa": 23, "oppervlakteLandInHa": 23, "oppervlakteWaterInHa": 0, "huisartsenpraktijkGemiddeldeAfstandInKm": 0.7, "huisartsenpraktijkGemiddeldAantalBinnen1Km": 3.7, "huisartsenpraktijkGemiddeldAantalBinnen3Km": 50.6, "huisartsenpraktijkGemiddeldAantalBinnen5Km": 120.8, "huisartsenpostGemiddeldeAfstandInKm": 2.3, "apotheekGemiddeldeAfstandInKm": 0.9, "ziekenhuisInclBuitenpolikliniekGemAfstInKm": 2.3, "ziekenhuisInclBuitenpoliGemAantalBinnen5Km": 2.8, "ziekenhuisInclBuitenpoliGemAantalBinnen10Km": 7.6, "ziekenhuisInclBuitenpoliGemAantalBinnen20Km": 12.3, "ziekenhuisExclBuitenpolikliniekGemAfstInKm": 2.3, "ziekenhuisExclBuitenpoliGemAantalBinnen5Km": 1.8, "ziekenhuisExclBuitenpoliGemAantalBinnen10Km": 6.6, "ziekenhuisExclBuitenpoliGemAantalBinnen20Km": 9.3, "groteSupermarktGemiddeldeAfstandInKm": 0.5, "groteSupermarktGemiddeldAantalBinnen1Km": 6.7, "groteSupermarktGemiddeldAantalBinnen3Km": 75.6, "groteSupermarktGemiddeldAantalBinnen5Km": 152.7, "winkelsOvDagelijkseLevensmGemAfstInKm": 0.1, "winkelsOvDagelLevensmGemAantalBinnen1Km": 46.0, "winkelsOvDagelLevensmGemAantalBinnen3Km": 449.5, "winkelsOvDagelLevensmGemAantalBinnen5Km": 959.3, "warenhuisGemiddeldeAfstandInKm": 1.1, "warenhuisGemiddeldAantalBinnen5Km": 13.1, "warenhuisGemiddeldAantalBinnen10Km": 24.0, "warenhuisGemiddeldAantalBinnen20Km": 34.4, "cafeGemiddeldeAfstandInKm": 0.3, "cafeGemiddeldAantalBinnen1Km": 23.4, "cafeGemiddeldAantalBinnen3Km": 308.5, "cafeGemiddeldAantalBinnen5Km": 628.7, "cafetariaGemiddeldeAfstandInKm": 0.1, "cafetariaGemiddeldAantalBinnen1Km": 36.3, "cafetariaGemiddeldAantalBinnen3Km": 380.5, "cafetariaGemiddeldAantalBinnen5Km": 768.6, "restaurantGemiddeldeAfstandInKm": 0.1, "restaurantGemiddeldAantalBinnen1Km": 98.7, "restaurantGemiddeldAantalBinnen3Km": 1039.0, "restaurantGemiddeldAantalBinnen5Km": 1954.0, "hotelGemiddeldeAfstandInKm": 0.4, "hotelGemiddeldAantalBinnen5Km": 373.8, "hotelGemiddeldAantalBinnen10Km": 442.7, "hotelGemiddeldAantalBinnen20Km": 509.9, "kinderdagverblijfGemiddeldeAfstandInKm": 0.4, "kinderdagverblijfGemiddeldAantalBinnen1Km": 9.0, "kinderdagverblijfGemiddeldAantalBinnen3Km": 113.1, "kinderdagverblijfGemiddeldAantalBinnen5Km": 299.1, "buitenschoolseOpvangGemAfstandInKm": 0.8, "buitenschoolseOpvangGemiddeldAantalBinnen1Km": 2.8, "buitenschoolseOpvangGemiddeldAantalBinnen3Km": 45.9, "buitenschoolseOpvangGemiddeldAantalBinnen5Km": 146.9, "basisonderwijsGemiddeldeAfstandInKm": 0.9, "basisonderwijsGemiddeldAantalBinnen1Km": 1.6, "basisonderwijsGemiddeldAantalBinnen3Km": 34.1, "basisonderwijsGemiddeldAantalBinnen5Km": 83.8, "voortgezetOnderwijsGemAfstandInKm": 0.7, "voortgezetOnderwijsGemiddeldAantalBinnen3Km": 23.9, "voortgezetOnderwijsGemiddeldAantalBinnen5Km": 43.5, "voortgezetOnderwijsGemiddeldAantalBinnen10Km": 80.8, "vmboGemiddeldeAfstandInKm": 0.7, "vmboGemiddeldAantalBinnen3Km": 12.5, "vmboGemiddeldAantalBinnen5Km": 28.9, "vmboGemiddeldAantalBinnen10Km": 58.8, "havoVwoGemiddeldeAfstandInKm": 0.7, "havoVwoGemiddeldAantalBinnen3Km": 19.9, "havoVwoGemiddeldAantalBinnen5Km": 32.9, "havoVwoGemiddeldAantalBinnen10Km": 55.6, "brandweerkazerneGemiddeldeAfstandInKm": 1.5, "opritHoofdverkeerswegGemiddeldeAfstandInKm": 2.6, "treinstationGemiddeldeAfstandInKm": 2.5, "overstapstationGemiddeldeAfstandInKm": 3.1, "zwembadGemiddeldeAfstandInKm": 1.2, "kunstijsbaanGemiddeldeAfstandInKm": 5.1, "bibliotheekGemiddeldeAfstandInKm": 1.0, "poppodiumGemiddeldeAfstandInKm": 1.8, "bioscoopGemiddeldeAfstandInKm": 1.0, "bioscoopGemiddeldAantalBinnen5Km": 10.7, "bioscoopGemiddeldAantalBinnen10Km": 14.0, "bioscoopGemiddeldAantalBinnen20Km": 17.8, "saunaGemiddeldeAfstandInKm": 2.6, "zonnebankGemiddeldeAfstandInKm": 0.6, "attractieparkGemiddeldeAfstandInKm": 2.6, "attractieparkGemiddeldAantalBinnen10Km": 7.0, "attractieparkGemiddeldAantalBinnen20Km": 12.0, "attractieparkGemiddeldAantalBinnen50Km": 63.0, "theaterGemiddeldeAfstandInKm": 1.1, "theaterGemiddeldAantalBinnen5Km": 33.4, "theaterGemiddeldAantalBinnen10Km": 51.9, "theaterGemiddeldAantalBinnen20Km": 58.8, "gemiddeldeAfstandTotMuseum": 1.1, "gemiddeldAantalMuseaBinnen5Km": 41.8, "gemiddeldAantalMuseaBinnen10Km": 50.0, "gemiddeldAantalMuseaBinnen20Km": 61.2, "afstandTotOpenbaarGroenTotaal": -99997.0, "afstandTotParkOfPlantsoen": -99997.0, "afstandTotDagrcreatiefTerrein": -99997.0, "afstandTotBos": -99997.0, "afstandTotOpenNatuurTerreinTotaal": -99997.0, "afstandTotOpenDroogNatuurTerrein": -99997.0, "afstandTotOpenNatNatuurlijkTerrein": -99997.0, "afstandTotSemiopenbaarGroenTotaal": -99997.0, "afstandTotSportterrein": -99997.0, "afstandTotVolkstuin": -99997.0, "afstandTotVerblijfsrecreatiefTerrein": -99997.0, "afstandTotRecreatiefBinnenwater": -99997.0, "afstandTotBegraafplaats": -99997.0, "jrstatcode": "2024BU0363KE04", "jaar": 2024, "aantalNieuwbouwWoningen": 0.0, "aantalNietWoningvoorraad": 455, "aantalNieuwbouwNietWoningen": 0, "percEengezinswoningTussenwoning": 0.0, "percEengezinswoningHoekwoning": 0.0, "percEengezinswoning2Onder1Kap": 0.0, "percEengezinswoningVrijstaand": 0.0, "percBouwjaarMeerDan10JaarGeleden": 99.0, "percBouwjaarAfgelopen10Jaar": 1.0, "percentageOnbewoond": 9, "gemiddeldAardgasverbruik": 590, "percentageAardgaswoningen": 99.0, "percentageAardgasvrijeWoningen": 1.0, "gemiddeldeElektriciteitslevering": 1630.0, "gemiddeldeElektriciteitsteruglevering": 30.0, "percentageWoningenMetZonnestroom": 4.0, "aantalLeerlingenPrimairOnderwijs": 140, "aantalLeerlingenVoortgezetOnderwijs": 100, "aantalStudentenMbo": 20, "aantalStudentenHbo": 160, "aantalStudentenWo": 420, "fuuid": "buurten.79020f31-3954-4b88-b2db-8a4930bb5e82" }, "geometry": { "type": "Polygon", "coordinates": [ [ [ 121764.397, 485645.766 ], [ 121795.063, 485529.713999999978114 ], [ 121892.541, 485324.956 ], [ 121745.215, 485250.393999999971129 ], [ 121435.626, 485152.391 ], [ 121202.201, 485103.045999999972992 ], [ 121172.616, 485236.93 ], [ 121149.059, 485331.327 ], [ 121147.976, 485342.728 ], [ 121148.055, 485352.544999999983702 ], [ 121150.968, 485378.802000000025146 ], [ 121155.294, 485397.631 ], [ 121499.097, 485510.044999999983702 ], [ 121708.178, 485608.020000000018626 ], [ 121691.443, 485673.487000000022817 ], [ 121708.62, 485676.077999999979511 ], [ 121725.611, 485679.696 ], [ 121742.355, 485684.327999999979511 ], [ 121758.789, 485689.956 ], [ 121764.397, 485645.766 ] ] ] } }
]
}
