{
"type": "FeatureCollection",
"name": "gekozen_buurten_metbuffer",
"crs": { "type": "name", "properties": { "name": "urn:ogc:def:crs:EPSG::28992" } },
"features": [
{ "type": "Feature", "properties": { "buurtcode": "BU0363KD05", "buurtnaam": "Museumplein", "wijkcode": "WK0363KD", "gemeentecode": "GM0363", "gemeentenaam": "Amsterdam", "indelingswijzigingWijkenEnBuurten": 1, "water": "NEE", "meestVoorkomendePostcode": "1071", "dekkingspercentage": 1, "omgevingsadressendichtheid": 8628, "stedelijkheidAdressenPerKm2": 1, "bevolkingsdichtheidInwonersPerKm2": -99997, "aantalInwoners": 10, "mannen": 5, "vrouwen": 5, "percentagePersonen0Tot15Jaar": -99997, "percentagePersonen15Tot25Jaar": -99997, "percentagePersonen25Tot45Jaar": -99997, "percentagePersonen45Tot65Jaar": -99997, "percentagePersonen65JaarEnOuder": -99997, "percentageOngehuwd": -99997, "percentageGehuwd": -99997, "percentageGescheid": -99997, "percentageVerweduwd": -99997, "geboorteTotaal": 0, "geboortesPer1000Inwoners": 0, "sterfteTotaal": 0, "sterfteRelatief": 0, "aantalHuishoudens": 5, "percentageEenpersoonshuishoudens": -99997, "percentageHuishoudensZonderKinderen": -99997, "percentageHuishoudensMetKinderen": -99997, "gemiddeldeHuishoudsgrootte": 1.6, "percentageMetHerkomstlandNederland": -99997, "percentageMetHerkomstlandUitEuropaExclNl": -99997, "percentageMetHerkomstlandBuitenEuropa": -99997, "percentageGebInNlMetHerkomstlandNederland": -99997, "percGebInNlMetHerkomstlandInEuropaExNl": -99997, "percGebInNlMetHerkomstlandBuitenEuropa": -99997, "percGebBuitenNlMetHerkomstlndInEuropaExNl": -99997, "percGebBuitenNlMetHerkomstlndBuitenEuropa": -99997, "aantalBedrijvenLandbouwBosbouwVisserij": -99997, "aantalBedrijvenNijverheidEnergie": -99997, "aantalBedrijvenHandelEnHoreca": -99997, "aantalBedrijvenVervoerInformatieCommunicatie": -99997, "aantalBedrijvenFinancieelOnroerendGoed": -99997, "aantalBedrijvenZakelijkeDienstverlening": -99997, "aantalBedrijvenOverheidOnderwijsEnZorg": -99997, "aantalBedrijvenCultuurRecreatieOverige": -99997, "aantalBedrijfsvestigingen": 15, "woningvoorraad": 5, "gemiddeldeWoningwaarde": -99997, "percentageEengezinswoning": -99997, "percentageMeergezinswoning": -99997, "percentageBewoond": -99997, "percentageKoopwoningen": -99997, "percentageHuurwoningen": -99997, "percHuurwoningenInBezitWoningcorporaties": -99997, "percHuurwoningenInBezitOverigeVerhuurders": -99997, "percentageWoningenMetEigendomOnbekend": -99997, "percentageBouwjaarklasseTot2000": -99997, "percentageBouwjaarklasseVanaf2000": -99997, "percentageLeegstandWoningen": -99997, "gemiddeldGasverbruikTotaal": -99997, "gemiddeldGasverbruikAppartement": -99997, "gemiddeldGasverbruikTussenwoning": -99997, "gemiddeldGasverbruikHoekwoning": -99997, "gemiddeldGasverbruik2Onder1KapWoning": -99997, "gemiddeldGasverbruikVrijstaandeWoning": -99997, "gemiddeldGasverbruikHuurwoning": -99997, "gemiddeldGasverbruikkoopwoning": -99997, "gemiddeldElektriciteitsverbruikTotaal": -99997, "gemiddeldElektriciteitsverbruikAppartement": -99997, "gemiddeldElektriciteitsverbruikTussenwoning": -99997, "gemiddeldElektriciteitsverbruikHoekwoning": -99997, "gemElektriciteitsverbruik2Onder1KapWoning": -99997, "gemElektriciteitsverbruikVrijstaandeWoning": -99997, "gemiddeldElektriciteitsverbruikHuurwoning": -99997, "gemiddeldElektriciteitsverbruikkoopwoning": -99997, "percentageWoningenMetStadsverwarming": -99997, "opleidingsniveauLaag": -99997, "opleidingsniveauMiddelbaar": -99997, "opleidingsniveauHoog": -99997, "nettoArbeidsparticipatie": -99997, "percentageWerknemers": -99997, "percentageZelfstandigen": -99997, "aantalInkomensontvangers": -99997, "gemiddeldInkomenPerInkomensontvanger": -99997, "gemiddeldInkomenPerInwoner": -99997, "percentagePersonenMetHoogInkomen": -99997, "percentagePersonenMetLaagInkomen": -99997, "percentageHuishoudensMetHoogInkomen": -99997, "percentageHuishoudensMetLaagInkomen": -99997, "percentageHuishoudensMetLaagsteInkomen": -99997, "percentageHuishoudensOnderOfRondSociaalMinimum": -99997, "aantalPersonenMetEenAoUitkeringTotaal": -99997, "aantalPersonenMetEenWwUitkeringTotaal": -99997, "aantalPersonenMetEenAlgBijstandsuitkeringTot": -99997, "aantalPersonenMetEenAowUitkeringTotaal": -99997, "gemiddeldGestandaardiseerdInkomenVanHuishoudens": -99997.0, "huishoudensTot110PercentVanSociaalMinimum": -99997.0, "huishoudensTot120PercentVanSociaalMinimum": -99997.0, "mediaanVermogenVanParticuliereHuish": -99997.0, "aantalJongerenMetJeugdzorgInNatura": -99997, "percentageJongerenMetJeugdzorgInNatura": -99997.0, "aantalWmoClienten": -99997, "aantalWmoClientenPer1000Inwoners": -99997, "personenautosTotaal": 5, "personenautosPerHuishouden": -99997.0, "personenautosPerKm2": -99997, "motortweewielersTotaal": 0, "aantalPersonenautosMetBrandstofBenzine": 5, "aantalPersonenautosMetOverigeBrandstof": 0, "oppervlakteTotaalInHa": 13, "oppervlakteLandInHa": 13, "oppervlakteWaterInHa": 0, "huisartsenpraktijkGemiddeldeAfstandInKm": -99997.0, "huisartsenpraktijkGemiddeldAantalBinnen1Km": -99997.0, "huisartsenpraktijkGemiddeldAantalBinnen3Km": -99997.0, "huisartsenpraktijkGemiddeldAantalBinnen5Km": -99997.0, "huisartsenpostGemiddeldeAfstandInKm": -99997.0, "apotheekGemiddeldeAfstandInKm": -99997.0, "ziekenhuisInclBuitenpolikliniekGemAfstInKm": -99997.0, "ziekenhuisInclBuitenpoliGemAantalBinnen5Km": -99997.0, "ziekenhuisInclBuitenpoliGemAantalBinnen10Km": -99997.0, "ziekenhuisInclBuitenpoliGemAantalBinnen20Km": -99997.0, "ziekenhuisExclBuitenpolikliniekGemAfstInKm": -99997.0, "ziekenhuisExclBuitenpoliGemAantalBinnen5Km": -99997.0, "ziekenhuisExclBuitenpoliGemAantalBinnen10Km": -99997.0, "ziekenhuisExclBuitenpoliGemAantalBinnen20Km": -99997.0, "groteSupermarktGemiddeldeAfstandInKm": -99997.0, "groteSupermarktGemiddeldAantalBinnen1Km": -99997.0, "groteSupermarktGemiddeldAantalBinnen3Km": -99997.0, "groteSupermarktGemiddeldAantalBinnen5Km": -99997.0, "winkelsOvDagelijkseLevensmGemAfstInKm": -99997.0, "winkelsOvDagelLevensmGemAantalBinnen1Km": -99997.0, "winkelsOvDagelLevensmGemAantalBinnen3Km": -99997.0, "winkelsOvDagelLevensmGemAantalBinnen5Km": -99997.0, "warenhuisGemiddeldeAfstandInKm": -99997.0, "warenhuisGemiddeldAantalBinnen5Km": -99997.0, "warenhuisGemiddeldAantalBinnen10Km": -99997.0, "warenhuisGemiddeldAantalBinnen20Km": -99997.0, "cafeGemiddeldeAfstandInKm": -99997.0, "cafeGemiddeldAantalBinnen1Km": -99997.0, "cafeGemiddeldAantalBinnen3Km": -99997.0, "cafeGemiddeldAantalBinnen5Km": -99997.0, "cafetariaGemiddeldeAfstandInKm": -99997.0, "cafetariaGemiddeldAantalBinnen1Km": -99997.0, "cafetariaGemiddeldAantalBinnen3Km": -99997.0, "cafetariaGemiddeldAantalBinnen5Km": -99997.0, "restaurantGemiddeldeAfstandInKm": -99997.0, "restaurantGemiddeldAantalBinnen1Km": -99997.0, "restaurantGemiddeldAantalBinnen3Km": -99997.0, "restaurantGemiddeldAantalBinnen5Km": -99997.0, "hotelGemiddeldeAfstandInKm": -99997.0, "hotelGemiddeldAantalBinnen5Km": -99997.0, "hotelGemiddeldAantalBinnen10Km": -99997.0, "hotelGemiddeldAantalBinnen20Km": -99997.0, "kinderdagverblijfGemiddeldeAfstandInKm": -99997.0, "kinderdagverblijfGemiddeldAantalBinnen1Km": -99997.0, "kinderdagverblijfGemiddeldAantalBinnen3Km": -99997.0, "kinderdagverblijfGemiddeldAantalBinnen5Km": -99997.0, "buitenschoolseOpvangGemAfstandInKm": -99997.0, "buitenschoolseOpvangGemiddeldAantalBinnen1Km": -99997.0, "buitenschoolseOpvangGemiddeldAantalBinnen3Km": -99997.0, "buitenschoolseOpvangGemiddeldAantalBinnen5Km": -99997.0, "basisonderwijsGemiddeldeAfstandInKm": -99997.0, "basisonderwijsGemiddeldAantalBinnen1Km": -99997.0, "basisonderwijsGemiddeldAantalBinnen3Km": -99997.0, "basisonderwijsGemiddeldAantalBinnen5Km": -99997.0, "voortgezetOnderwijsGemAfstandInKm": -99997.0, "voortgezetOnderwijsGemiddeldAantalBinnen3Km": -99997.0, "voortgezetOnderwijsGemiddeldAantalBinnen5Km": -99997.0, "voortgezetOnderwijsGemiddeldAantalBinnen10Km": -99997.0, "vmboGemiddeldeAfstandInKm": -99997.0, "vmboGemiddeldAantalBinnen3Km": -99997.0, "vmboGemiddeldAantalBinnen5Km": -99997.0, "vmboGemiddeldAantalBinnen10Km": -99997.0, "havoVwoGemiddeldeAfstandInKm": -99997.0, "havoVwoGemiddeldAantalBinnen3Km": -99997.0, "havoVwoGemiddeldAantalBinnen5Km": -99997.0, "havoVwoGemiddeldAantalBinnen10Km": -99997.0, "brandweerkazerneGemiddeldeAfstandInKm": -99997.0, "opritHoofdverkeerswegGemiddeldeAfstandInKm": -99997.0, "treinstationGemiddeldeAfstandInKm": -99997.0, "overstapstationGemiddeldeAfstandInKm": -99997.0, "zwembadGemiddeldeAfstandInKm": -99997.0, "kunstijsbaanGemiddeldeAfstandInKm": -99997.0, "bibliotheekGemiddeldeAfstandInKm": -99997.0, "poppodiumGemiddeldeAfstandInKm": -99997.0, "bioscoopGemiddeldeAfstandInKm": -99997.0, "bioscoopGemiddeldAantalBinnen5Km": -99997.0, "bioscoopGemiddeldAantalBinnen10Km": -99997.0, "bioscoopGemiddeldAantalBinnen20Km": -99997.0, "saunaGemiddeldeAfstandInKm": -99997.0, "zonnebankGemiddeldeAfstandInKm": -99997.0, "attractieparkGemiddeldeAfstandInKm": -99997.0, "attractieparkGemiddeldAantalBinnen10Km": -99997.0, "attractieparkGemiddeldAantalBinnen20Km": -99997.0, "attractieparkGemiddeldAantalBinnen50Km": -99997.0, "theaterGemiddeldeAfstandInKm": -99997.0, "theaterGemiddeldAantalBinnen5Km": -99997.0, "theaterGemiddeldAantalBinnen10Km": -99997.0, "theaterGemiddeldAantalBinnen20Km": -99997.0, "gemiddeldeAfstandTotMuseum": -99997.0, "gemiddeldAantalMuseaBinnen5Km": -99997.0, "gemiddeldAantalMuseaBinnen10Km": -99997.0, "gemiddeldAantalMuseaBinnen20Km": -99997.0, "afstandTotOpenbaarGroenTotaal": -99997.0, "afstandTotParkOfPlantsoen": -99997.0, "afstandTotDagrcreatiefTerrein": -99997.0, "afstandTotBos": -99997.0, "afstandTotOpenNatuurTerreinTotaal": -99997.0, "afstandTotOpenDroogNatuurTerrein": -99997.0, "afstandTotOpenNatNatuurlijkTerrein": -99997.0, "afstandTotSemiopenbaarGroenTotaal": -99997.0, "afstandTotSportterrein": -99997.0, "afstandTotVolkstuin": -99997.0, "afstandTotVerblijfsrecreatiefTerrein": -99997.0, "afstandTotRecreatiefBinnenwater": -99997.0, "afstandTotBegraafplaats": -99997.0, "jrstatcode": "2024BU0363KD05", "jaar": 2024, "aantalNieuwbouwWoningen": 0.0, "aantalNietWoningvoorraad": 17, "aantalNieuwbouwNietWoningen": 0, "percEengezinswoningTussenwoning": -99997.0, "percEengezinswoningHoekwoning": -99997.0, "percEengezinswoning2Onder1Kap": -99997.0, "percEengezinswoningVrijstaand": -99997.0, "percBouwjaarMeerDan10JaarGeleden": -99997.0, "percBouwjaarAfgelopen10Jaar": -99997.0, "percentageOnbewoond": -99997, "gemiddeldAardgasverbruik": 2250, "percentageAardgaswoningen": -99997.0, "percentageAardgasvrijeWoningen": -99997.0, "gemiddeldeElektriciteitslevering": 2920.0, "gemiddeldeElektriciteitsteruglevering": 0.0, "percentageWoningenMetZonnestroom": -99997.0, "aantalLeerlingenPrimairOnderwijs": 0, "aantalLeerlingenVoortgezetOnderwijs": 0, "aantalStudentenMbo": 0, "aantalStudentenHbo": 0, "aantalStudentenWo": 0, "fuuid": "buurten.023fe66e-eb45-4234-b669-0a83b6a78755" }, "geometry": { "type": "MultiPolygon", "coordinates": [ [ [ [ 120660.374984045134624, 485870.836132964584976 ], [ 120644.09639075177256, 485914.342943616036791 ], [ 120642.721577664313372, 485919.254542897921056 ], [ 120639.651577664306387, 485935.407542897912208 ], [ 120639.467741312648286, 485945.537390516430605 ], [ 120642.666287220577942, 485955.150762071367353 ], [ 120648.882411956583383, 485963.151224673260003 ], [ 120657.407148477563169, 485968.626302373711951 ], [ 120727.485653931988054, 485998.357643697818276 ], [ 120738.200420196953928, 486004.468581476830877 ], [ 120745.58089125812694, 486010.618308760924265 ], [ 120794.646704906554078, 486065.341229501354974 ], [ 120801.723861986902193, 486071.143415539234411 ], [ 120810.220992321235826, 486074.541987480362877 ], [ 120819.347376420686487, 486075.220683603198268 ], [ 120828.253738178318599, 486073.116346320370212 ], [ 120836.111276158859255, 486068.424799449392594 ], [ 120898.047276158860768, 486017.161799449357204 ], [ 120898.111797233228572, 486017.108244726201519 ], [ 120971.857797233227757, 485955.722244726202916 ], [ 120978.08959718652477, 485948.589504949981347 ], [ 120981.787092858678079, 485939.86942277563503 ], [ 120982.581720726608182, 485930.431209283415228 ], [ 120980.394272895995528, 485921.215658330707811 ], [ 120975.442792483154335, 485913.141368944372516 ], [ 120950.122518971969839, 485883.600760744360741 ], [ 120941.432645597757073, 485857.102038426382933 ], [ 120936.133172794943675, 485764.330079719249625 ], [ 120934.410926680706325, 485755.885819132323377 ], [ 120930.359114471342764, 485748.27960546471877 ], [ 120924.312108226193232, 485742.139134472294245 ], [ 120916.768931549115223, 485737.971142850874458 ], [ 120908.352078126656124, 485736.119590258458629 ], [ 120899.756141011617729, 485736.737274362123571 ], [ 120797.781215677037835, 485759.098816326004453 ], [ 120775.066499068008852, 485661.408705760142766 ], [ 120771.351437623627135, 485652.40829672239488 ], [ 120764.949547104071826, 485645.071755155804567 ], [ 120756.535224312028731, 485640.171937165898271 ], [ 120746.994862473060493, 485638.225006154214498 ], [ 120737.333475574996555, 485639.436058419174515 ], [ 120704.249475574993994, 485649.226058419211768 ], [ 120701.329151361918775, 485650.262223497673403 ], [ 120654.170348289248068, 485553.711554507433902 ], [ 120648.918944662276772, 485546.168210594856646 ], [ 120561.451944662272581, 485454.498210594814736 ], [ 120552.601619742927141, 485448.101566238503437 ], [ 120542.048124691631529, 485445.29638310696464 ], [ 120531.189742609596578, 485446.454333347617649 ], [ 120481.040373161173193, 485461.379075556178577 ], [ 120478.966244500305038, 485461.709125513618346 ], [ 120478.719404364877846, 485461.699991117639001 ], [ 120478.22343249230471, 485461.592178699735086 ], [ 120457.064000762213254, 485452.852238216204569 ], [ 120447.688481864577625, 485450.65201862633694 ], [ 120438.098886953448527, 485451.535755172953941 ], [ 120429.283384582595318, 485455.412382417474873 ], [ 120422.150376234014402, 485461.882429769902956 ], [ 120417.434889258627663, 485470.279185299761593 ], [ 120406.576560969755519, 485499.98027877981076 ], [ 120322.641321738366969, 485693.499572249129415 ], [ 120320.296765059305471, 485702.617731123697013 ], [ 120320.89372506919608, 485712.013549663301092 ], [ 120324.373409320891369, 485720.761667448969092 ], [ 120330.393116211154847, 485728.000513782375492 ], [ 120338.359986430587014, 485733.017160689400043 ], [ 120660.374984045134624, 485870.836132964584976 ] ] ] ] } },
{ "type": "Feature", "properties": { "buurtcode": "BU0363KE01", "buurtnaam": "Frans Halsbuurt", "wijkcode": "WK0363KE", "gemeentecode": "GM0363", "gemeentenaam": "Amsterdam", "indelingswijzigingWijkenEnBuurten": 1, "water": "NEE", "meestVoorkomendePostcode": "1072", "dekkingspercentage": 1, "omgevingsadressendichtheid": 9988, "stedelijkheidAdressenPerKm2": 1, "bevolkingsdichtheidInwonersPerKm2": 23931, "aantalInwoners": 2640, "mannen": 1310, "vrouwen": 1330, "percentagePersonen0Tot15Jaar": 7, "percentagePersonen15Tot25Jaar": 13, "percentagePersonen25Tot45Jaar": 48, "percentagePersonen45Tot65Jaar": 21, "percentagePersonen65JaarEnOuder": 10, "percentageOngehuwd": 75, "percentageGehuwd": 17, "percentageGescheid": 6, "percentageVerweduwd": 1, "geboorteTotaal": 25, "geboortesPer1000Inwoners": 9, "sterfteTotaal": 10, "sterfteRelatief": 3, "aantalHuishoudens": 1780, "percentageEenpersoonshuishoudens": 65, "percentageHuishoudensZonderKinderen": 23, "percentageHuishoudensMetKinderen": 12, "gemiddeldeHuishoudsgrootte": 1.5, "percentageMetHerkomstlandNederland": 46, "percentageMetHerkomstlandUitEuropaExclNl": 26, "percentageMetHerkomstlandBuitenEuropa": 29, "percentageGebInNlMetHerkomstlandNederland": 46, "percGebInNlMetHerkomstlandInEuropaExNl": 5, "percGebInNlMetHerkomstlandBuitenEuropa": 9, "percGebBuitenNlMetHerkomstlndInEuropaExNl": 21, "percGebBuitenNlMetHerkomstlndBuitenEuropa": 19, "aantalBedrijvenLandbouwBosbouwVisserij": 0, "aantalBedrijvenNijverheidEnergie": 25, "aantalBedrijvenHandelEnHoreca": 125, "aantalBedrijvenVervoerInformatieCommunicatie": 85, "aantalBedrijvenFinancieelOnroerendGoed": 40, "aantalBedrijvenZakelijkeDienstverlening": 245, "aantalBedrijvenOverheidOnderwijsEnZorg": 80, "aantalBedrijvenCultuurRecreatieOverige": 125, "aantalBedrijfsvestigingen": 720, "woningvoorraad": 1735, "gemiddeldeWoningwaarde": 547, "percentageEengezinswoning": 1, "percentageMeergezinswoning": 99, "percentageBewoond": -99997, "percentageKoopwoningen": 28, "percentageHuurwoningen": 72, "percHuurwoningenInBezitWoningcorporaties": 23, "percHuurwoningenInBezitOverigeVerhuurders": 48, "percentageWoningenMetEigendomOnbekend": -99997, "percentageBouwjaarklasseTot2000": -99997, "percentageBouwjaarklasseVanaf2000": -99997, "percentageLeegstandWoningen": -99997, "gemiddeldGasverbruikTotaal": -99997, "gemiddeldGasverbruikAppartement": -99997, "gemiddeldGasverbruikTussenwoning": -99997, "gemiddeldGasverbruikHoekwoning": -99997, "gemiddeldGasverbruik2Onder1KapWoning": -99997, "gemiddeldGasverbruikVrijstaandeWoning": -99997, "gemiddeldGasverbruikHuurwoning": -99997, "gemiddeldGasverbruikkoopwoning": -99997, "gemiddeldElektriciteitsverbruikTotaal": -99997, "gemiddeldElektriciteitsverbruikAppartement": -99997, "gemiddeldElektriciteitsverbruikTussenwoning": -99997, "gemiddeldElektriciteitsverbruikHoekwoning": -99997, "gemElektriciteitsverbruik2Onder1KapWoning": -99997, "gemElektriciteitsverbruikVrijstaandeWoning": -99997, "gemiddeldElektriciteitsverbruikHuurwoning": -99997, "gemiddeldElektriciteitsverbruikkoopwoning": -99997, "percentageWoningenMetStadsverwarming": -99997, "opleidingsniveauLaag": -99997, "opleidingsniveauMiddelbaar": -99997, "opleidingsniveauHoog": -99997, "nettoArbeidsparticipatie": -99997, "percentageWerknemers": -99997, "percentageZelfstandigen": -99997, "aantalInkomensontvangers": -99997, "gemiddeldInkomenPerInkomensontvanger": -99997, "gemiddeldInkomenPerInwoner": -99997, "percentagePersonenMetHoogInkomen": -99997, "percentagePersonenMetLaagInkomen": -99997, "percentageHuishoudensMetHoogInkomen": -99997, "percentageHuishoudensMetLaagInkomen": -99997, "percentageHuishoudensMetLaagsteInkomen": -99997, "percentageHuishoudensOnderOfRondSociaalMinimum": -99997, "aantalPersonenMetEenAoUitkeringTotaal": 70, "aantalPersonenMetEenWwUitkeringTotaal": 30, "aantalPersonenMetEenAlgBijstandsuitkeringTot": 70, "aantalPersonenMetEenAowUitkeringTotaal": 230, "gemiddeldGestandaardiseerdInkomenVanHuishoudens": -99997.0, "huishoudensTot110PercentVanSociaalMinimum": -99997.0, "huishoudensTot120PercentVanSociaalMinimum": -99997.0, "mediaanVermogenVanParticuliereHuish": -99997.0, "aantalJongerenMetJeugdzorgInNatura": -99997, "percentageJongerenMetJeugdzorgInNatura": -99997.0, "aantalWmoClienten": -99997, "aantalWmoClientenPer1000Inwoners": -99997, "personenautosTotaal": 480, "personenautosPerHuishouden": 0.3, "personenautosPerKm2": 4330, "motortweewielersTotaal": 65, "aantalPersonenautosMetBrandstofBenzine": 380, "aantalPersonenautosMetOverigeBrandstof": 100, "oppervlakteTotaalInHa": 12, "oppervlakteLandInHa": 11, "oppervlakteWaterInHa": 1, "huisartsenpraktijkGemiddeldeAfstandInKm": 0.5, "huisartsenpraktijkGemiddeldAantalBinnen1Km": 3.0, "huisartsenpraktijkGemiddeldAantalBinnen3Km": 53.6, "huisartsenpraktijkGemiddeldAantalBinnen5Km": 126.5, "huisartsenpostGemiddeldeAfstandInKm": 2.6, "apotheekGemiddeldeAfstandInKm": 1.1, "ziekenhuisInclBuitenpolikliniekGemAfstInKm": 2.5, "ziekenhuisInclBuitenpoliGemAantalBinnen5Km": 3.2, "ziekenhuisInclBuitenpoliGemAantalBinnen10Km": 7.1, "ziekenhuisInclBuitenpoliGemAantalBinnen20Km": 12.9, "ziekenhuisExclBuitenpolikliniekGemAfstInKm": 2.6, "ziekenhuisExclBuitenpoliGemAantalBinnen5Km": 2.2, "ziekenhuisExclBuitenpoliGemAantalBinnen10Km": 6.1, "ziekenhuisExclBuitenpoliGemAantalBinnen20Km": 9.9, "groteSupermarktGemiddeldeAfstandInKm": 0.4, "groteSupermarktGemiddeldAantalBinnen1Km": 7.1, "groteSupermarktGemiddeldAantalBinnen3Km": 78.2, "groteSupermarktGemiddeldAantalBinnen5Km": 159.3, "winkelsOvDagelijkseLevensmGemAfstInKm": 0.2, "winkelsOvDagelLevensmGemAantalBinnen1Km": 49.6, "winkelsOvDagelLevensmGemAantalBinnen3Km": 477.9, "winkelsOvDagelLevensmGemAantalBinnen5Km": 982.7, "warenhuisGemiddeldeAfstandInKm": 1.5, "warenhuisGemiddeldAantalBinnen5Km": 13.6, "warenhuisGemiddeldAantalBinnen10Km": 24.0, "warenhuisGemiddeldAantalBinnen20Km": 34.8, "cafeGemiddeldeAfstandInKm": 0.3, "cafeGemiddeldAantalBinnen1Km": 26.6, "cafeGemiddeldAantalBinnen3Km": 320.2, "cafeGemiddeldAantalBinnen5Km": 638.6, "cafetariaGemiddeldeAfstandInKm": 0.1, "cafetariaGemiddeldAantalBinnen1Km": 47.2, "cafetariaGemiddeldAantalBinnen3Km": 403.6, "cafetariaGemiddeldAantalBinnen5Km": 787.8, "restaurantGemiddeldeAfstandInKm": 0.1, "restaurantGemiddeldAantalBinnen1Km": 112.7, "restaurantGemiddeldAantalBinnen3Km": 1101.0, "restaurantGemiddeldAantalBinnen5Km": 1989.0, "hotelGemiddeldeAfstandInKm": 0.4, "hotelGemiddeldAantalBinnen5Km": 377.9, "hotelGemiddeldAantalBinnen10Km": 444.1, "hotelGemiddeldAantalBinnen20Km": 511.5, "kinderdagverblijfGemiddeldeAfstandInKm": 0.7, "kinderdagverblijfGemiddeldAantalBinnen1Km": 4.0, "kinderdagverblijfGemiddeldAantalBinnen3Km": 121.5, "kinderdagverblijfGemiddeldAantalBinnen5Km": 314.8, "buitenschoolseOpvangGemAfstandInKm": 1.2, "buitenschoolseOpvangGemiddeldAantalBinnen1Km": 0.5, "buitenschoolseOpvangGemiddeldAantalBinnen3Km": 47.9, "buitenschoolseOpvangGemiddeldAantalBinnen5Km": 155.7, "basisonderwijsGemiddeldeAfstandInKm": 1.2, "basisonderwijsGemiddeldAantalBinnen1Km": 0.3, "basisonderwijsGemiddeldAantalBinnen3Km": 35.2, "basisonderwijsGemiddeldAantalBinnen5Km": 89.3, "voortgezetOnderwijsGemAfstandInKm": 0.6, "voortgezetOnderwijsGemiddeldAantalBinnen3Km": 24.3, "voortgezetOnderwijsGemiddeldAantalBinnen5Km": 44.0, "voortgezetOnderwijsGemiddeldAantalBinnen10Km": 80.5, "vmboGemiddeldeAfstandInKm": 0.6, "vmboGemiddeldAantalBinnen3Km": 12.6, "vmboGemiddeldAantalBinnen5Km": 29.4, "vmboGemiddeldAantalBinnen10Km": 58.5, "havoVwoGemiddeldeAfstandInKm": 0.6, "havoVwoGemiddeldAantalBinnen3Km": 21.2, "havoVwoGemiddeldAantalBinnen5Km": 33.9, "havoVwoGemiddeldAantalBinnen10Km": 55.4, "brandweerkazerneGemiddeldeAfstandInKm": 1.1, "opritHoofdverkeerswegGemiddeldeAfstandInKm": 2.8, "treinstationGemiddeldeAfstandInKm": 2.8, "overstapstationGemiddeldeAfstandInKm": 2.9, "zwembadGemiddeldeAfstandInKm": 0.8, "kunstijsbaanGemiddeldeAfstandInKm": 5.3, "bibliotheekGemiddeldeAfstandInKm": 1.1, "poppodiumGemiddeldeAfstandInKm": 1.5, "bioscoopGemiddeldeAfstandInKm": 1.2, "bioscoopGemiddeldAantalBinnen5Km": 11.0, "bioscoopGemiddeldAantalBinnen10Km": 14.0, "bioscoopGemiddeldAantalBinnen20Km": 17.8, "saunaGemiddeldeAfstandInKm": 2.4, "zonnebankGemiddeldeAfstandInKm": 0.9, "attractieparkGemiddeldeAfstandInKm": 2.6, "attractieparkGemiddeldAantalBinnen10Km": 7.1, "attractieparkGemiddeldAantalBinnen20Km": 12.0, "attractieparkGemiddeldAantalBinnen50Km": 63.0, "theaterGemiddeldeAfstandInKm": 1.4, "theaterGemiddeldAantalBinnen5Km": 34.2, "theaterGemiddeldAantalBinnen10Km": 52.0, "theaterGemiddeldAantalBinnen20Km": 59.7, "gemiddeldeAfstandTotMuseum": 0.9, "gemiddeldAantalMuseaBinnen5Km": 42.2, "gemiddeldAantalMuseaBinnen10Km": 50.0, "gemiddeldAantalMuseaBinnen20Km": 62.7, "afstandTotOpenbaarGroenTotaal": -99997.0, "afstandTotParkOfPlantsoen": -99997.0, "afstandTotDagrcreatiefTerrein": -99997.0, "afstandTotBos": -99997.0, "afstandTotOpenNatuurTerreinTotaal": -99997.0, "afstandTotOpenDroogNatuurTerrein": -99997.0, "afstandTotOpenNatNatuurlijkTerrein": -99997.0, "afstandTotSemiopenbaarGroenTotaal": -99997.0, "afstandTotSportterrein": -99997.0, "afstandTotVolkstuin": -99997.0, "afstandTotVerblijfsrecreatiefTerrein": -99997.0, "afstandTotRecreatiefBinnenwater": -99997.0, "afstandTotBegraafplaats": -99997.0, "jrstatcode": "2024BU0363KE01", "jaar": 2024, "aantalNieuwbouwWoningen": 0.0, "aantalNietWoningvoorraad": 140, "aantalNieuwbouwNietWoningen": 0, "percEengezinswoningTussenwoning": 1.0, "percEengezinswoningHoekwoning": 0.0, "percEengezinswoning2Onder1Kap": 0.0, "percEengezinswoningVrijstaand": 0.0, "percBouwjaarMeerDan10JaarGeleden": 98.0, "percBouwjaarAfgelopen10Jaar": 2.0, "percentageOnbewoond": 9, "gemiddeldAardgasverbruik": 630, "percentageAardgaswoningen": 99.0, "percentageAardgasvrijeWoningen": 0.0, "gemiddeldeElektriciteitslevering": 1690.0, "gemiddeldeElektriciteitsteruglevering": 30.0, "percentageWoningenMetZonnestroom": 3.0, "aantalLeerlingenPrimairOnderwijs": 70, "aantalLeerlingenVoortgezetOnderwijs": 70, "aantalStudentenMbo": 20, "aantalStudentenHbo": 60, "aantalStudentenWo": 160, "fuuid": "buurten.1920357a-c83d-42b5-8dd0-af53b9871205" }, "geometry": { "type": "MultiPolygon", "coordinates": [ [ [ [ 120992.621723517018836, 485937.371448319463525 ], [ 120995.066290080532781, 485934.944838261115365 ], [ 121012.977290080525563, 485914.99683826114051 ], [ 121015.104260943087866, 485912.338868113874923 ], [ 121030.278260943086934, 485890.998868113849312 ], [ 121031.733989082858898, 485888.744483819638845 ], [ 121039.597989082860295, 485875.280483819660731 ], [ 121040.499638177017914, 485873.618635775288567 ], [ 121047.73162645479897, 485859.224802851327695 ], [ 121061.55103319529735, 485838.393339836620726 ], [ 121078.963305450335611, 485817.191496208892204 ], [ 121098.688114342119661, 485797.775609368865844 ], [ 121107.04951559213805, 485790.8496348328772 ], [ 121118.783544494828675, 485782.632622020202689 ], [ 121130.685914882269572, 485775.496937545656692 ], [ 121142.532474643914611, 485769.450418728112709 ], [ 121154.755909925748711, 485764.208332026784774 ], [ 121167.892350431880914, 485759.605433484888636 ], [ 121180.704804867113126, 485756.074940591584891 ], [ 121195.041181666849297, 485753.147431498218793 ], [ 121203.089375943716732, 485750.260356517683249 ], [ 121209.996232688106829, 485745.220122101076413 ], [ 121215.20069539405813, 485738.436155635630712 ], [ 121218.279996112425579, 485730.459531026950572 ], [ 121218.983997658404405, 485721.938203965721186 ], [ 121216.138997658403241, 485675.020203965716064 ], [ 121216.030727914330782, 485673.710353288333863 ], [ 121188.440727914334275, 485410.342353288317099 ], [ 121187.96947283562622, 485407.33049194375053 ], [ 121184.659472835613997, 485391.493491943750996 ], [ 121180.768504583611502, 485381.786454685614444 ], [ 121173.781925306189805, 485374.004814995394554 ], [ 121164.548730192633229, 485369.09418221906526 ], [ 121072.802730192634044, 485339.340182219049893 ], [ 121060.63760999799706, 485338.018506567867007 ], [ 120898.879609997995431, 485353.785506567859557 ], [ 120890.54563666593458, 485355.830976194352843 ], [ 120883.131690353911836, 485360.152140108693857 ], [ 120877.244388860475738, 485366.395435602113139 ], [ 120873.365438111359254, 485374.050028901430778 ], [ 120871.812218414605013, 485382.489612188888714 ], [ 120865.13421841460513, 485555.907612188893836 ], [ 120865.133950777788414, 485558.209416590165347 ], [ 120866.895950777790858, 485604.244416590197943 ], [ 120866.922827667047386, 485604.807928368507419 ], [ 120876.230827667051926, 485767.751928368525114 ], [ 120881.753827205058769, 485864.436920280801132 ], [ 120883.198676787142176, 485872.074237100372557 ], [ 120894.964676787145436, 485907.953237100329716 ], [ 120900.693207516844268, 485918.128631055587903 ], [ 120929.887207516832859, 485952.188631055585574 ], [ 120937.115397340181516, 485958.320600891835056 ], [ 120945.895917511297739, 485961.891349793644622 ], [ 120955.352201070301817, 485962.544406794768292 ], [ 120964.540219011003501, 485960.214576647209469 ], [ 120972.54272351700638, 485955.134448319440708 ], [ 120992.621723517018836, 485937.371448319463525 ] ] ] ] } },
{ "type": "Feature", "properties": { "buurtcode": "BU0363KE04", "buurtnaam": "Sarphatiparkbuurt", "wijkcode": "WK0363KE", "gemeentecode": "GM0363", "gemeentenaam": "Amsterdam", "indelingswijzigingWijkenEnBuurten": 1, "water": "NEE", "meestVoorkomendePostcode": "1073", "dekkingspercentage": 4, "omgevingsadressendichtheid": 11231, "stedelijkheidAdressenPerKm2": 1, "bevolkingsdichtheidInwonersPerKm2": 22830, "aantalInwoners": 5180, "mannen": 2580, "vrouwen": 2605, "percentagePersonen0Tot15Jaar": 6, "percentagePersonen15Tot25Jaar": 16, "percentagePersonen25Tot45Jaar": 49, "percentagePersonen45Tot65Jaar": 19, "percentagePersonen65JaarEnOuder": 10, "percentageOngehuwd": 78, "percentageGehuwd": 15, "percentageGescheid": 6, "percentageVerweduwd": 1, "geboorteTotaal": 25, "geboortesPer1000Inwoners": 5, "sterfteTotaal": 15, "sterfteRelatief": 3, "aantalHuishoudens": 3490, "percentageEenpersoonshuishoudens": 65, "percentageHuishoudensZonderKinderen": 25, "percentageHuishoudensMetKinderen": 10, "gemiddeldeHuishoudsgrootte": 1.5, "percentageMetHerkomstlandNederland": 46, "percentageMetHerkomstlandUitEuropaExclNl": 24, "percentageMetHerkomstlandBuitenEuropa": 30, "percentageGebInNlMetHerkomstlandNederland": 46, "percGebInNlMetHerkomstlandInEuropaExNl": 4, "percGebInNlMetHerkomstlandBuitenEuropa": 10, "percGebBuitenNlMetHerkomstlndInEuropaExNl": 20, "percGebBuitenNlMetHerkomstlndBuitenEuropa": 20, "aantalBedrijvenLandbouwBosbouwVisserij": 0, "aantalBedrijvenNijverheidEnergie": 70, "aantalBedrijvenHandelEnHoreca": 405, "aantalBedrijvenVervoerInformatieCommunicatie": 150, "aantalBedrijvenFinancieelOnroerendGoed": 55, "aantalBedrijvenZakelijkeDienstverlening": 450, "aantalBedrijvenOverheidOnderwijsEnZorg": 165, "aantalBedrijvenCultuurRecreatieOverige": 305, "aantalBedrijfsvestigingen": 1600, "woningvoorraad": 3357, "gemiddeldeWoningwaarde": 493, "percentageEengezinswoning": 0, "percentageMeergezinswoning": 100, "percentageBewoond": -99997, "percentageKoopwoningen": 25, "percentageHuurwoningen": 75, "percHuurwoningenInBezitWoningcorporaties": 20, "percHuurwoningenInBezitOverigeVerhuurders": 55, "percentageWoningenMetEigendomOnbekend": -99997, "percentageBouwjaarklasseTot2000": -99997, "percentageBouwjaarklasseVanaf2000": -99997, "percentageLeegstandWoningen": -99997, "gemiddeldGasverbruikTotaal": -99997, "gemiddeldGasverbruikAppartement": -99997, "gemiddeldGasverbruikTussenwoning": -99997, "gemiddeldGasverbruikHoekwoning": -99997, "gemiddeldGasverbruik2Onder1KapWoning": -99997, "gemiddeldGasverbruikVrijstaandeWoning": -99997, "gemiddeldGasverbruikHuurwoning": -99997, "gemiddeldGasverbruikkoopwoning": -99997, "gemiddeldElektriciteitsverbruikTotaal": -99997, "gemiddeldElektriciteitsverbruikAppartement": -99997, "gemiddeldElektriciteitsverbruikTussenwoning": -99997, "gemiddeldElektriciteitsverbruikHoekwoning": -99997, "gemElektriciteitsverbruik2Onder1KapWoning": -99997, "gemElektriciteitsverbruikVrijstaandeWoning": -99997, "gemiddeldElektriciteitsverbruikHuurwoning": -99997, "gemiddeldElektriciteitsverbruikkoopwoning": -99997, "percentageWoningenMetStadsverwarming": -99997, "opleidingsniveauLaag": -99997, "opleidingsniveauMiddelbaar": -99997, "opleidingsniveauHoog": -99997, "nettoArbeidsparticipatie": -99997, "percentageWerknemers": -99997, "percentageZelfstandigen": -99997, "aantalInkomensontvangers": -99997, "gemiddeldInkomenPerInkomensontvanger": -99997, "gemiddeldInkomenPerInwoner": -99997, "percentagePersonenMetHoogInkomen": -99997, "percentagePersonenMetLaagInkomen": -99997, "percentageHuishoudensMetHoogInkomen": -99997, "percentageHuishoudensMetLaagInkomen": -99997, "percentageHuishoudensMetLaagsteInkomen": -99997, "percentageHuishoudensOnderOfRondSociaalMinimum": -99997, "aantalPersonenMetEenAoUitkeringTotaal": 120, "aantalPersonenMetEenWwUitkeringTotaal": 70, "aantalPersonenMetEenAlgBijstandsuitkeringTot": 130, "aantalPersonenMetEenAowUitkeringTotaal": 450, "gemiddeldGestandaardiseerdInkomenVanHuishoudens": -99997.0, "huishoudensTot110PercentVanSociaalMinimum": -99997.0, "huishoudensTot120PercentVanSociaalMinimum": -99997.0, "mediaanVermogenVanParticuliereHuish": -99997.0, "aantalJongerenMetJeugdzorgInNatura": -99997, "percentageJongerenMetJeugdzorgInNatura": -99997.0, "aantalWmoClienten": -99997, "aantalWmoClientenPer1000Inwoners": -99997, "personenautosTotaal": 800, "personenautosPerHuishouden": 0.2, "personenautosPerKm2": 3522, "motortweewielersTotaal": 90, "aantalPersonenautosMetBrandstofBenzine": 645, "aantalPersonenautosMetOverigeBrandstof": 150, "oppervlakteTotaalInHa": 23, "oppervlakteLandInHa": 23, "oppervlakteWaterInHa": 0, "huisartsenpraktijkGemiddeldeAfstandInKm": 0.7, "huisartsenpraktijkGemiddeldAantalBinnen1Km": 3.7, "huisartsenpraktijkGemiddeldAantalBinnen3Km": 50.6, "huisartsenpraktijkGemiddeldAantalBinnen5Km": 120.8, "huisartsenpostGemiddeldeAfstandInKm": 2.3, "apotheekGemiddeldeAfstandInKm": 0.9, "ziekenhuisInclBuitenpolikliniekGemAfstInKm": 2.3, "ziekenhuisInclBuitenpoliGemAantalBinnen5Km": 2.8, "ziekenhuisInclBuitenpoliGemAantalBinnen10Km": 7.6, "ziekenhuisInclBuitenpoliGemAantalBinnen20Km": 12.3, "ziekenhuisExclBuitenpolikliniekGemAfstInKm": 2.3, "ziekenhuisExclBuitenpoliGemAantalBinnen5Km": 1.8, "ziekenhuisExclBuitenpoliGemAantalBinnen10Km": 6.6, "ziekenhuisExclBuitenpoliGemAantalBinnen20Km": 9.3, "groteSupermarktGemiddeldeAfstandInKm": 0.5, "groteSupermarktGemiddeldAantalBinnen1Km": 6.7, "groteSupermarktGemiddeldAantalBinnen3Km": 75.6, "groteSupermarktGemiddeldAantalBinnen5Km": 152.7, "winkelsOvDagelijkseLevensmGemAfstInKm": 0.1, "winkelsOvDagelLevensmGemAantalBinnen1Km": 46.0, "winkelsOvDagelLevensmGemAantalBinnen3Km": 449.5, "winkelsOvDagelLevensmGemAantalBinnen5Km": 959.3, "warenhuisGemiddeldeAfstandInKm": 1.1, "warenhuisGemiddeldAantalBinnen5Km": 13.1, "warenhuisGemiddeldAantalBinnen10Km": 24.0, "warenhuisGemiddeldAantalBinnen20Km": 34.4, "cafeGemiddeldeAfstandInKm": 0.3, "cafeGemiddeldAantalBinnen1Km": 23.4, "cafeGemiddeldAantalBinnen3Km": 308.5, "cafeGemiddeldAantalBinnen5Km": 628.7, "cafetariaGemiddeldeAfstandInKm": 0.1, "cafetariaGemiddeldAantalBinnen1Km": 36.3, "cafetariaGemiddeldAantalBinnen3Km": 380.5, "cafetariaGemiddeldAantalBinnen5Km": 768.6, "restaurantGemiddeldeAfstandInKm": 0.1, "restaurantGemiddeldAantalBinnen1Km": 98.7, "restaurantGemiddeldAantalBinnen3Km": 1039.0, "restaurantGemiddeldAantalBinnen5Km": 1954.0, "hotelGemiddeldeAfstandInKm": 0.4, "hotelGemiddeldAantalBinnen5Km": 373.8, "hotelGemiddeldAantalBinnen10Km": 442.7, "hotelGemiddeldAantalBinnen20Km": 509.9, "kinderdagverblijfGemiddeldeAfstandInKm": 0.4, "kinderdagverblijfGemiddeldAantalBinnen1Km": 9.0, "kinderdagverblijfGemiddeldAantalBinnen3Km": 113.1, "kinderdagverblijfGemiddeldAantalBinnen5Km": 299.1, "buitenschoolseOpvangGemAfstandInKm": 0.8, "buitenschoolseOpvangGemiddeldAantalBinnen1Km": 2.8, "buitenschoolseOpvangGemiddeldAantalBinnen3Km": 45.9, "buitenschoolseOpvangGemiddeldAantalBinnen5Km": 146.9, "basisonderwijsGemiddeldeAfstandInKm": 0.9, "basisonderwijsGemiddeldAantalBinnen1Km": 1.6, "basisonderwijsGemiddeldAantalBinnen3Km": 34.1, "basisonderwijsGemiddeldAantalBinnen5Km": 83.8, "voortgezetOnderwijsGemAfstandInKm": 0.7, "voortgezetOnderwijsGemiddeldAantalBinnen3Km": 23.9, "voortgezetOnderwijsGemiddeldAantalBinnen5Km": 43.5, "voortgezetOnderwijsGemiddeldAantalBinnen10Km": 80.8, "vmboGemiddeldeAfstandInKm": 0.7, "vmboGemiddeldAantalBinnen3Km": 12.5, "vmboGemiddeldAantalBinnen5Km": 28.9, "vmboGemiddeldAantalBinnen10Km": 58.8, "havoVwoGemiddeldeAfstandInKm": 0.7, "havoVwoGemiddeldAantalBinnen3Km": 19.9, "havoVwoGemiddeldAantalBinnen5Km": 32.9, "havoVwoGemiddeldAantalBinnen10Km": 55.6, "brandweerkazerneGemiddeldeAfstandInKm": 1.5, "opritHoofdverkeerswegGemiddeldeAfstandInKm": 2.6, "treinstationGemiddeldeAfstandInKm": 2.5, "overstapstationGemiddeldeAfstandInKm": 3.1, "zwembadGemiddeldeAfstandInKm": 1.2, "kunstijsbaanGemiddeldeAfstandInKm": 5.1, "bibliotheekGemiddeldeAfstandInKm": 1.0, "poppodiumGemiddeldeAfstandInKm": 1.8, "bioscoopGemiddeldeAfstandInKm": 1.0, "bioscoopGemiddeldAantalBinnen5Km": 10.7, "bioscoopGemiddeldAantalBinnen10Km": 14.0, "bioscoopGemiddeldAantalBinnen20Km": 17.8, "saunaGemiddeldeAfstandInKm": 2.6, "zonnebankGemiddeldeAfstandInKm": 0.6, "attractieparkGemiddeldeAfstandInKm": 2.6, "attractieparkGemiddeldAantalBinnen10Km": 7.0, "attractieparkGemiddeldAantalBinnen20Km": 12.0, "attractieparkGemiddeldAantalBinnen50Km": 63.0, "theaterGemiddeldeAfstandInKm": 1.1, "theaterGemiddeldAantalBinnen5Km": 33.4, "theaterGemiddeldAantalBinnen10Km": 51.9, "theaterGemiddeldAantalBinnen20Km": 58.8, "gemiddeldeAfstandTotMuseum": 1.1, "gemiddeldAantalMuseaBinnen5Km": 41.8, "gemiddeldAantalMuseaBinnen10Km": 50.0, "gemiddeldAantalMuseaBinnen20Km": 61.2, "afstandTotOpenbaarGroenTotaal": -99997.0, "afstandTotParkOfPlantsoen": -99997.0, "afstandTotDagrcreatiefTerrein": -99997.0, "afstandTotBos": -99997.0, "afstandTotOpenNatuurTerreinTotaal": -99997.0, "afstandTotOpenDroogNatuurTerrein": -99997.0, "afstandTotOpenNatNatuurlijkTerrein": -99997.0, "afstandTotSemiopenbaarGroenTotaal": -99997.0, "afstandTotSportterrein": -99997.0, "afstandTotVolkstuin": -99997.0, "afstandTotVerblijfsrecreatiefTerrein": -99997.0, "afstandTotRecreatiefBinnenwater": -99997.0, "afstandTotBegraafplaats": -99997.0, "jrstatcode": "2024BU0363KE04", "jaar": 2024, "aantalNieuwbouwWoningen": 0.0, "aantalNietWoningvoorraad": 455, "aantalNieuwbouwNietWoningen": 0, "percEengezinswoningTussenwoning": 0.0, "percEengezinswoningHoekwoning": 0.0, "percEengezinswoning2Onder1Kap": 0.0, "percEengezinswoningVrijstaand": 0.0, "percBouwjaarMeerDan10JaarGeleden": 99.0, "percBouwjaarAfgelopen10Jaar": 1.0, "percentageOnbewoond": 9, "gemiddeldAardgasverbruik": 590, "percentageAardgaswoningen": 99.0, "percentageAardgasvrijeWoningen": 1.0, "gemiddeldeElektriciteitslevering": 1630.0, "gemiddeldeElektriciteitsteruglevering": 30.0, "percentageWoningenMetZonnestroom": 4.0, "aantalLeerlingenPrimairOnderwijs": 140, "aantalLeerlingenVoortgezetOnderwijs": 100, "aantalStudentenMbo": 20, "aantalStudentenHbo": 160, "aantalStudentenWo": 420, "fuuid": "buurten.79020f31-3954-4b88-b2db-8a4930bb5e82" }, "geometry": { "type": "MultiPolygon", "coordinates": [ [ [ [ 121793.908459025798948, 485651.5116069909418 ], [ 121823.352720440743724, 485540.083138141839299 ], [ 121919.62814075256756, 485337.851224148878828 ], [ 121922.268050539845717, 485328.993631261226255 ], [ 121922.086332257909817, 485319.752795048232656 ], [ 121919.100234217505204, 485311.00583592284238 ], [ 121913.59319045918528, 485303.582996540702879 ], [ 121906.087917800294235, 485298.188836943125352 ], [ 121758.761917800293304, 485223.626836943090893 ], [ 121754.26893688653945, 485221.792842211259995 ], [ 121444.679936886546784, 485123.789842211292125 ], [ 121441.830741939193103, 485123.03965969895944 ], [ 121208.405741939190193, 485073.694659698929172 ], [ 121199.086604864860419, 485073.208095533656888 ], [ 121190.068813412697637, 485075.608615856966935 ], [ 121182.224919670043164, 485080.66394882829627 ], [ 121176.313890607241774, 485087.884945706580766 ], [ 121172.907671225941158, 485096.572910371760372 ], [ 121143.410313755564857, 485230.060292746755295 ], [ 121119.951662214298267, 485324.06319335126318 ], [ 121119.193442088944721, 485328.490020856261253 ], [ 121118.110442088946002, 485339.891020856273826 ], [ 121117.976971329917433, 485342.969410131918266 ], [ 121118.055971329915337, 485352.786410131899174 ], [ 121118.237934432487236, 485355.852960239106324 ], [ 121121.150934432487702, 485382.109960239147767 ], [ 121121.7297611166141, 485385.519543226400856 ], [ 121126.055761116615031, 485404.348543226369657 ], [ 121130.017817309082602, 485413.790040459600277 ], [ 121136.92426117794821, 485421.349193346221 ], [ 121145.970570598045015, 485426.145446587412152 ], [ 121488.029201175551862, 485537.989086397807114 ], [ 121672.96266407877556, 485624.648591699369717 ], [ 121662.37760048340715, 485666.057158081035595 ], [ 121661.548788313899422, 485676.004162622208241 ], [ 121664.029259696617373, 485685.672517739469185 ], [ 121669.544426920911064, 485693.991938358871266 ], [ 121677.483762023228337, 485700.041466198919807 ], [ 121686.968382116610883, 485703.151419677422382 ], [ 121703.253843498736387, 485705.607938885688782 ], [ 121718.481225284864195, 485708.850400618510321 ], [ 121733.487839143534075, 485713.001776358694769 ], [ 121749.069337800319772, 485718.337828107527457 ], [ 121757.763457282359013, 485719.938465911487583 ], [ 121766.546627777788672, 485718.935634422523435 ], [ 121774.656179706784314, 485715.416412568418309 ], [ 121781.387935851555085, 485709.686385155306198 ], [ 121786.157357219824917, 485702.243108003458474 ], [ 121788.550300354705541, 485693.732903652184177 ], [ 121793.908459025798948, 485651.5116069909418 ] ] ] ] } }
]
}
